{
  "type": "FeatureCollection",
  "features": [
    {
      "type": "Feature",
      "properties": {
        "norad_id": 40545,
        "name": "GSAT0204 (GALILEO 8)",
        "group": "gnss",
        "lat": -51.994782819844325,
        "lon": -136.72141007007815,
        "alt_km": 23210.095153112678,
        "timestamp": "2025-12-19T04:59:48.548217+00:00",
        "meta_object_name": "GSAT0204 (GALILEO 8)",
        "meta_object_id": "2015-017B",
        "meta_epoch": "2025-12-18T05:07:45.807168",
        "meta_mean_motion": 1.70475664,
        "meta_eccentricity": 0.00061628,
        "meta_inclination": 56.8529,
        "meta_ra_of_asc_node": 346.5485,
        "meta_arg_of_pericenter": 265.6138,
        "meta_mean_anomaly": 94.3298,
        "meta_ephemeris_type": 0,
        "meta_classification_type": "U",
        "meta_norad_cat_id": 40545,
        "meta_element_set_no": 999,
        "meta_rev_at_epoch": 2916,
        "meta_bstar": 0,
        "meta_mean_motion_dot": -7.7e-07,
        "meta_mean_motion_ddot": 0,
        "tle_line1": "1 40545U 15017B   25352.21372462 -.00000077  00000+0  00000+0 0  9999",
        "tle_line2": "2 40545  56.8529 346.5485 0006162 265.6138  94.3298  1.70475664 29169"
      },
      "geometry": {
        "type": "Point",
        "coordinates": [
          -136.72141007007815,
          -51.994782819844325
        ]
      }
    },
    {
      "type": "Feature",
      "properties": {
        "norad_id": 40549,
        "name": "BEIDOU-3S IGSO-1S (C31)",
        "group": "gnss",
        "lat": -29.17827778837607,
        "lon": -90.81650568785967,
        "alt_km": 35874.9016728524,
        "timestamp": "2025-12-19T04:59:48.548229+00:00",
        "meta_object_name": "BEIDOU-3S IGSO-1S (C31)",
        "meta_object_id": "2015-019A",
        "meta_epoch": "2025-12-18T19:55:38.829792",
        "meta_mean_motion": 1.00292047,
        "meta_eccentricity": 0.0036331,
        "meta_inclination": 49.5404,
        "meta_ra_of_asc_node": 297.6395,
        "meta_arg_of_pericenter": 194.0028,
        "meta_mean_anomaly": 349.3621,
        "meta_ephemeris_type": 0,
        "meta_classification_type": "U",
        "meta_norad_cat_id": 40549,
        "meta_element_set_no": 999,
        "meta_rev_at_epoch": 3926,
        "meta_bstar": 0,
        "meta_mean_motion_dot": -1.83e-06,
        "meta_mean_motion_ddot": 0,
        "tle_line1": "1 40549U 15019A   25352.83031053 -.00000183  00000+0  00000+0 0  9999",
        "tle_line2": "2 40549  49.5404 297.6395 0036331 194.0028 349.3621  1.00292047 39264"
      },
      "geometry": {
        "type": "Point",
        "coordinates": [
          -90.81650568785967,
          -29.17827778837607
        ]
      }
    },
    {
      "type": "Feature",
      "properties": {
        "norad_id": 40730,
        "name": "GPS BIIF-10 (PRN 08)",
        "group": "gnss",
        "lat": -14.113668638525185,
        "lon": -95.97338237572534,
        "alt_km": 19971.212177158908,
        "timestamp": "2025-12-19T04:59:48.548241+00:00",
        "meta_object_name": "GPS BIIF-10 (PRN 08)",
        "meta_object_id": "2015-033A",
        "meta_epoch": "2025-12-18T05:38:11.905728",
        "meta_mean_motion": 2.0056541,
        "meta_eccentricity": 0.0111299,
        "meta_inclination": 54.1258,
        "meta_ra_of_asc_node": 274.5468,
        "meta_arg_of_pericenter": 26.9435,
        "meta_mean_anomaly": 333.656,
        "meta_ephemeris_type": 0,
        "meta_classification_type": "U",
        "meta_norad_cat_id": 40730,
        "meta_element_set_no": 999,
        "meta_rev_at_epoch": 7636,
        "meta_bstar": 0,
        "meta_mean_motion_dot": -3.6e-07,
        "meta_mean_motion_ddot": 0,
        "tle_line1": "1 40730U 15033A   25352.23486002 -.00000036  00000+0  00000+0 0  9996",
        "tle_line2": "2 40730  54.1258 274.5468 0111299  26.9435 333.6560  2.00565410 76360"
      },
      "geometry": {
        "type": "Point",
        "coordinates": [
          -95.97338237572534,
          -14.113668638525185
        ]
      }
    },
    {
      "type": "Feature",
      "properties": {
        "norad_id": 40748,
        "name": "BEIDOU-3S M2S (C58)",
        "group": "gnss",
        "lat": -17.192446324692177,
        "lon": 140.7107762523084,
        "alt_km": 21517.15997651749,
        "timestamp": "2025-12-19T04:59:48.548252+00:00",
        "meta_object_name": "BEIDOU-3S M2S (C58)",
        "meta_object_id": "2015-037A",
        "meta_epoch": "2025-12-11T22:15:26.437248",
        "meta_mean_motion": 1.8622897,
        "meta_eccentricity": 0.00123447,
        "meta_inclination": 55.0397,
        "meta_ra_of_asc_node": 308.4912,
        "meta_arg_of_pericenter": 267.8245,
        "meta_mean_anomaly": 92.025,
        "meta_ephemeris_type": 0,
        "meta_classification_type": "U",
        "meta_norad_cat_id": 40748,
        "meta_element_set_no": 999,
        "meta_rev_at_epoch": 7063,
        "meta_bstar": 0,
        "meta_mean_motion_dot": -8.9e-07,
        "meta_mean_motion_ddot": 0,
        "tle_line1": "1 40748U 15037A   25345.92738932 -.00000089  00000+0  00000+0 0  9997",
        "tle_line2": "2 40748  55.0397 308.4912 0012344 267.8245  92.0250  1.86228970 70636"
      },
      "geometry": {
        "type": "Point",
        "coordinates": [
          140.7107762523084,
          -17.192446324692177
        ]
      }
    },
    {
      "type": "Feature",
      "properties": {
        "norad_id": 40749,
        "name": "BEIDOU-3S M1S (C57)",
        "group": "gnss",
        "lat": 37.28118739987852,
        "lon": -19.629083869890998,
        "alt_km": 21514.452883428352,
        "timestamp": "2025-12-19T04:59:48.548281+00:00",
        "meta_object_name": "BEIDOU-3S M1S (C57)",
        "meta_object_id": "2015-037B",
        "meta_epoch": "2025-12-18T01:31:18.410592",
        "meta_mean_motion": 1.86254045,
        "meta_eccentricity": 0.00035849,
        "meta_inclination": 55.0306,
        "meta_ra_of_asc_node": 308.2705,
        "meta_arg_of_pericenter": 0.3009,
        "meta_mean_anomaly": 359.6859,
        "meta_ephemeris_type": 0,
        "meta_classification_type": "U",
        "meta_norad_cat_id": 40749,
        "meta_element_set_no": 999,
        "meta_rev_at_epoch": 7075,
        "meta_bstar": 0,
        "meta_mean_motion_dot": -8.6e-07,
        "meta_mean_motion_ddot": 0,
        "tle_line1": "1 40749U 15037B   25352.06340753 -.00000086  00000+0  00000+0 0  9998",
        "tle_line2": "2 40749  55.0306 308.2705 0003584   0.3009 359.6859  1.86254045 70751"
      },
      "geometry": {
        "type": "Point",
        "coordinates": [
          -19.629083869890998,
          37.28118739987852
        ]
      }
    },
    {
      "type": "Feature",
      "properties": {
        "norad_id": 40889,
        "name": "GSAT0205 (GALILEO 9)",
        "group": "gnss",
        "lat": 26.043333765322018,
        "lon": -113.4000956162932,
        "alt_km": 23201.487909063944,
        "timestamp": "2025-12-19T04:59:48.548293+00:00",
        "meta_object_name": "GSAT0205 (GALILEO 9)",
        "meta_object_id": "2015-045A",
        "meta_epoch": "2025-12-17T23:34:28.865856",
        "meta_mean_motion": 1.70473246,
        "meta_eccentricity": 0.00059886,
        "meta_inclination": 55.0015,
        "meta_ra_of_asc_node": 226.6133,
        "meta_arg_of_pericenter": 39.6119,
        "meta_mean_anomaly": 320.5359,
        "meta_ephemeris_type": 0,
        "meta_classification_type": "U",
        "meta_norad_cat_id": 40889,
        "meta_element_set_no": 999,
        "meta_rev_at_epoch": 6392,
        "meta_bstar": 0,
        "meta_mean_motion_dot": 5.9e-07,
        "meta_mean_motion_ddot": 0,
        "tle_line1": "1 40889U 15045A   25351.98227854  .00000059  00000+0  00000+0 0  9997",
        "tle_line2": "2 40889  55.0015 226.6133 0005988  39.6119 320.5359  1.70473246 63920"
      },
      "geometry": {
        "type": "Point",
        "coordinates": [
          -113.4000956162932,
          26.043333765322018
        ]
      }
    },
    {
      "type": "Feature",
      "properties": {
        "norad_id": 40890,
        "name": "GSAT0206 (GALILEO 10)",
        "group": "gnss",
        "lat": -52.951577378871136,
        "lon": 114.63745195914325,
        "alt_km": 23237.321989025346,
        "timestamp": "2025-12-19T04:59:48.548307+00:00",
        "meta_object_name": "GSAT0206 (GALILEO 10)",
        "meta_object_id": "2015-045B",
        "meta_epoch": "2025-12-14T16:24:04.185792",
        "meta_mean_motion": 1.70473242,
        "meta_eccentricity": 0.00039786,
        "meta_inclination": 55.0018,
        "meta_ra_of_asc_node": 226.6995,
        "meta_arg_of_pericenter": 38.8814,
        "meta_mean_anomaly": 321.2332,
        "meta_ephemeris_type": 0,
        "meta_classification_type": "U",
        "meta_norad_cat_id": 40890,
        "meta_element_set_no": 999,
        "meta_rev_at_epoch": 6389,
        "meta_bstar": 0,
        "meta_mean_motion_dot": 3.4e-07,
        "meta_mean_motion_ddot": 0,
        "tle_line1": "1 40890U 15045B   25348.68338178  .00000034  00000+0  00000+0 0  9997",
        "tle_line2": "2 40890  55.0018 226.6995 0003978  38.8814 321.2332  1.70473242 63892"
      },
      "geometry": {
        "type": "Point",
        "coordinates": [
          114.63745195914325,
          -52.951577378871136
        ]
      }
    }
  ]
}